SatCatId,ObjectName,LaunchYear,OrbitalPeriod,LaunchMass,StatusCode,Inclination,Status,UcsData,OrbitClassEstimated,LaunchSiteCountry,Owner,UseType,Purpose,LaunchVehicleClass,TLE1,TLE2,MeanMotion,Eccentricity,OrbitClass
48662,STARLINK-2726,2021,95.59,260.0,+,53.05,Active,1,LEO,USA,USA,Commercial,Communications,Falcon,1 48662U 21044AA  23027.73044498  .00001717  00000+0  13413-3 0  9990,2 48662  53.0537 175.6347 0001195  83.3006 276.8119 15.06398706 92482,15.06398706,0.0001195,LEO
48663,STARLINK-2667,2021,95.59,260.0,+,53.05,Active,1,LEO,USA,USA,Commercial,Communications,Falcon,1 48663U 21044AB  23028.12483310  .00000013  00000+0  19758-4 0  9992,2 48663  53.0559 173.8650 0000910  89.8197 270.2896 15.06398853 93383,15.06398853,9.1e-05,LEO
48664,STARLINK-2709,2021,95.59,260.0,+,53.05,Active,1,LEO,USA,USA,Commercial,Communications,Falcon,1 48664U 21044AC  23028.12115466  .00000837  00000+0  75057-4 0  9995,2 48664  53.0531 173.8822 0001330  84.7800 275.3341 15.06397491 93442,15.06397491,0.000133,LEO
48665,STARLINK-2653,2021,95.59,260.0,+,53.06,Active,1,LEO,USA,USA,Commercial,Communications,Falcon,1 48665U 21044AD  23028.13495529  .00003862  00000+0  27813-3 0  9995,2 48665  53.0554 173.8111 0001246  85.2610 274.8521 15.06383684 93443,15.06383684,0.0001246,LEO
48666,STARLINK-2666,2021,95.59,260.0,+,53.05,Active,1,LEO,USA,USA,Commercial,Communications,Falcon,1 48666U 21044AE  23027.68258158 -.00000135  00000+0  97937-5 0  9997,2 48666  53.0538 176.3275 0000938  65.0596 295.0491 15.06401023 92461,15.06401023,9.38e-05,LEO
48667,STARLINK-2735,2021,95.59,260.0,+,53.05,Active,1,LEO,USA,USA,Commercial,Communications,Falcon,1 48667U 21044AF  23027.78573536  .00001110  00000+0  93383-4 0  9992,2 48667  53.0541 175.3871 0001444 116.2489 243.8649 15.06396581 92491,15.06396581,0.0001444,LEO
48668,STARLINK-2738,2021,95.59,260.0,+,53.05,Active,1,LEO,USA,USA,Commercial,Communications,Falcon,1 48668U 21044AG  23027.78205090  .00000600  00000+0  59150-4 0  9997,2 48668  53.0546 175.3954 0001170  81.9806 278.1315 15.06394854 92498,15.06394854,0.000117,LEO
48669,STARLINK-2707,2021,95.59,260.0,+,53.05,Active,1,LEO,USA,USA,Commercial,Communications,Falcon,1 48669U 21044AH  23027.77836133  .00002454  00000+0  18356-3 0  9996,2 48669  53.0544 175.4057 0001148  94.0640 266.0480 15.06400859 92489,15.06400859,0.0001148,LEO
48670,STARLINK-2763,2021,95.59,260.0,+,53.05,Active,1,LEO,USA,USA,Commercial,Communications,Falcon,1 48670U 21044AJ  23028.10641903  .00001154  00000+0  96350-4 0  9992,2 48670  53.0543 173.9363 0000905  79.1743 280.9347 15.06389894 93372,15.06389894,9.05e-05,LEO
48671,STARLINK-2745,2021,95.59,260.0,+,53.05,Active,1,LEO,USA,USA,Commercial,Communications,Falcon,1 48671U 21044AK  23027.63829797  .00000639  00000+0  61822-4 0  9992,2 48671  53.0549 176.0484 0001265  83.4596 276.6537 15.06395430 92466,15.0639543,0.0001265,LEO
48672,STARLINK-2705,2021,95.59,260.0,+,53.05,Active,1,LEO,USA,USA,Commercial,Communications,Falcon,1 48672U 21044AL  23027.70095287  .00002020  00000+0  15446-3 0  9996,2 48672  53.0535 175.7580 0001099  88.1000 272.0115 15.06401048 92478,15.06401048,0.0001099,LEO
48673,STARLINK-2711,2021,95.59,260.0,+,53.05,Active,1,LEO,USA,USA,Commercial,Communications,Falcon,1 48673U 21044AM  23027.69727099  .00001115  00000+0  93706-4 0  9998,2 48673  53.0546 175.7718 0001116  89.4787 270.6330 15.06401328 92474,15.06401328,0.0001116,LEO
48674,STARLINK-2712,2021,95.59,260.0,+,53.05,Active,1,LEO,USA,USA,Commercial,Communications,Falcon,1 48674U 21044AN  23027.69264061 -.00000020  00000+0  17544-4 0  9995,2 48674  53.0542 175.7947 0001198  80.2078 279.9046 15.06395065 92473,15.06395065,0.0001198,LEO
48675,STARLINK-2737,2021,95.59,260.0,+,53.05,Active,1,LEO,USA,USA,Commercial,Communications,Falcon,1 48675U 21044AP  23027.68989751  .00001348  00000+0  10938-3 0  9997,2 48675  53.0533 175.8116 0001236  85.6437 274.4693 15.06393247 92472,15.06393247,0.0001236,LEO
48676,STARLINK-2746,2021,95.59,260.0,+,53.05,Active,1,LEO,USA,USA,Commercial,Communications,Falcon,1 48676U 21044AQ  23027.61986370  .00001387  00000+0  11198-3 0  9997,2 48676  53.0532 176.1236 0001168  83.0555 277.0567 15.06395980 92460,15.0639598,0.0001168,LEO
48677,STARLINK-2719,2021,95.59,260.0,+,53.05,Active,1,LEO,USA,USA,Commercial,Communications,Falcon,1 48677U 21044AR  23027.68158116  .00000618  00000+0  60380-4 0  9998,2 48677  53.0522 175.8493 0001186  80.2321 279.8802 15.06397030 92472,15.0639703,0.0001186,LEO
48678,STARLINK-2615,2021,95.59,260.0,+,53.05,Active,1,LEO,USA,USA,Commercial,Communications,Falcon,1 48678U 21044AS  23027.67884152 -.00000078  00000+0  13641-4 0  9993,2 48678  53.0527 175.8627 0001193  75.1295 284.9826 15.06401763 92470,15.06401763,0.0001193,LEO
48679,STARLINK-2648,2021,95.59,260.0,+,53.05,Active,1,LEO,USA,USA,Commercial,Communications,Falcon,1 48679U 21044AT  23027.67514937  .00004157  00000+0  29780-3 0  9996,2 48679  53.0533 175.8836 0001106  82.0492 278.0622 15.06396466 92471,15.06396466,0.0001106,LEO
48680,STARLINK-2649,2021,95.59,260.0,+,53.05,Active,1,LEO,USA,USA,Commercial,Communications,Falcon,1 48680U 21044AU  23027.67147063  .00001016  00000+0  87103-4 0  9995,2 48680  53.0544 175.8948 0001268  70.2611 289.8514 15.06395838 92472,15.06395838,0.0001268,LEO
48681,STARLINK-2725,2021,95.59,260.0,+,53.05,Active,1,LEO,USA,USA,Commercial,Communications,Falcon,1 48681U 21044AV  23027.67057736  .00003146  00000+0  22997-3 0  9998,2 48681  53.0512 146.1408 0001317  81.6355 278.4784 15.06404216 92885,15.06404216,0.0001317,LEO
48682,STARLINK-2743,2021,95.59,260.0,+,53.05,Active,1,LEO,USA,USA,Commercial,Communications,Falcon,1 48682U 21044AW  23027.99953864  .00015369  00000+0  10475-2 0  9998,2 48682  53.0523 134.5931 0000991  98.2920 261.8182 15.06431654 93918,15.06431654,9.91e-05,LEO
48683,STARLINK-2756,2021,95.59,260.0,+,53.05,Active,1,LEO,USA,USA,Commercial,Communications,Falcon,1 48683U 21044AX  23027.62355182  .00001801  00000+0  13975-3 0  9993,2 48683  53.0532 136.1289 0001178  86.5123 273.6001 15.06401796 93023,15.06401796,0.0001178,LEO
48684,STARLINK-2741,2021,95.59,260.0,+,53.05,Active,1,LEO,USA,USA,Commercial,Communications,Falcon,1 48684U 21044AY  23027.64617393  .00001142  00000+0  95586-4 0  9998,2 48684  53.0546 151.3693 0001315  91.4547 268.6593 15.06397090 92812,15.0639709,0.0001315,LEO
48685,STARLINK-2751,2021,95.59,260.0,+,53.05,Active,1,LEO,USA,USA,Commercial,Communications,Falcon,1 48685U 21044AZ  23027.99215060  .00000513  00000+0  53306-4 0  9997,2 48685  53.0527 134.5003 0001286  74.3905 285.7226 15.06401404 93926,15.06401404,0.0001286,LEO
48686,STARLINK-2629,2021,95.59,260.0,+,53.05,Active,1,LEO,USA,USA,Commercial,Communications,Falcon,1 48686U 21044BA  23027.52176440  .00001090  00000+0  92067-4 0  9993,2 48686  53.0536 141.8523 0001151  79.9668 280.1451 15.06398691 92935,15.06398691,0.0001151,LEO
48687,STARLINK-2627,2021,95.59,260.0,+,53.05,Active,1,LEO,USA,USA,Commercial,Communications,Falcon,1 48687U 21044BB  23027.56319388  .00000144  00000+0  28566-4 0  9990,2 48687  53.0536 131.3775 0001435 120.2117 239.9014 15.06398845 93088,15.06398845,0.0001435,LEO
48688,STARLINK-2742,2021,95.59,260.0,+,53.05,Active,1,LEO,USA,USA,Commercial,Communications,Falcon,1 48688U 21044BC  23027.56688075  .00001592  00000+0  12576-3 0  9994,2 48688  53.0530 131.3666 0001664 108.2262 251.8908 15.06400662 93089,15.06400662,0.0001664,LEO
48689,STARLINK-2617,2021,95.59,260.0,+,53.05,Active,1,LEO,USA,USA,Commercial,Communications,Falcon,1 48689U 21044BD  23027.57194336  .00000202  00000+0  32478-4 0  9999,2 48689  53.0533 136.3186 0001433 121.8437 238.2691 15.06397852 93011,15.06397852,0.0001433,LEO
48690,STARLINK-2740,2021,95.59,260.0,+,53.05,Active,1,LEO,USA,USA,Commercial,Communications,Falcon,1 48690U 21044BE  23027.64474602  .00000800  00000+0  72581-4 0  9999,2 48690  53.0525 146.0192 0001203  88.7994 271.3132 15.06400440 92883,15.0640044,0.0001203,LEO
48691,STARLINK-2750,2021,95.59,260.0,+,53.05,Active,1,LEO,USA,USA,Commercial,Communications,Falcon,1 48691U 21044BF  23027.61756604  .00001334  00000+0  10843-3 0  9997,2 48691  53.0529 141.1415 0001229  87.3335 272.7794 15.06396833 92951,15.06396833,0.0001229,LEO
48692,STARLINK-2752,2021,95.59,260.0,+,53.06,Active,1,LEO,USA,USA,Commercial,Communications,Falcon,1 48692U 21044BG  23027.60283416  .00000411  00000+0  46476-4 0  9990,2 48692  53.0551 141.3355 0001250 100.4150 259.6979 15.06396316 92953,15.06396316,0.000125,LEO
48693,STARLINK-2618,2021,95.59,260.0,+,53.05,Active,1,LEO,USA,USA,Commercial,Communications,Falcon,1 48693U 21044BH  23028.00870733 -.00003258  00000+0 -19999-3 0  9993,2 48693  53.0524 144.3793 0001407  85.4827 274.6322 15.06385093 93781,15.06385093,0.0001407,LEO
48694,STARLINK-2748,2021,95.59,260.0,+,53.05,Active,1,LEO,USA,USA,Commercial,Communications,Falcon,1 48694U 21044BJ  23027.64518660  .00001326  00000+0  10793-3 0  9996,2 48694  53.0531 151.0119 0001229  84.9870 275.1259 15.06394184 92810,15.06394184,0.0001229,LEO
48695,STARLINK-2616,2021,95.59,260.0,+,53.05,Active,1,LEO,USA,USA,Commercial,Communications,Falcon,1 48695U 21044BK  23027.60190624  .00000575  00000+0  57469-4 0  9996,2 48695  53.0549 151.2633 0001528  90.1272 269.9892 15.06396718 93719,15.06396718,0.0001528,LEO
48696,STARLINK-2753,2021,95.59,260.0,+,53.05,Active,1,LEO,USA,USA,Commercial,Communications,Falcon,1 48696U 21044BL  23027.65858001  .00000169  00000+0  30233-4 0  9991,2 48696  53.0541 156.0059 0001205  75.2694 284.8428 15.06394550 92757,15.0639455,0.0001205,LEO
48697,STARLINK-2715,2021,95.59,260.0,+,53.05,Active,1,LEO,USA,USA,Commercial,Communications,Falcon,1 48697U 21044BM  23027.62171289  .00002871  00000+0  21157-3 0  9991,2 48697  53.0537 156.1331 0001340  81.5268 278.5873 15.06402547 92743,15.06402547,0.000134,LEO
